IRIDIUM 7 [-]           
1 24793U 97020B   24110.73307195  .00001009  00000+0  34672-3 0  9990
2 24793  86.4002 354.3154 0002416  85.7736 274.3736 14.35162322411367
IRIDIUM 5 [-]           
1 24795U 97020D   24110.48811697  .00012988  00000+0  12625-2 0  9992
2 24795  86.3875 277.8131 0122541 210.0425 149.3734 14.86922090422341
IRIDIUM 4 [-]           
1 24796U 97020E   24110.63816435  .00001086  00000+0  36666-3 0  9994
2 24796  86.3994 351.5160 0002226  89.3482 270.7970 14.36084129411664
IRIDIUM 914 [-]         
1 24836U 97030A   24110.61696904  .00001257  00000+0  39383-3 0  9994
2 24836  86.3984   1.3650 0002791 126.7779 233.3676 14.39931484546153
IRIDIUM 16 [-]          
1 24841U 97030F   24110.29830822  .00001366  00000+0  44707-3 0  9990
2 24841  86.4087  23.3103 0003576  51.7659 308.3860 14.37822512406070
IRIDIUM 911 [-]         
1 24842U 97030G   24110.29972170  .00001731  00000+0  47562-3 0  9992
2 24842  86.4514  22.4869 0016533  72.7776 287.5234 14.46434428413789
IRIDIUM 17 [-]          
1 24870U 97034B   24110.85704034  .00001781  00000+0  59560-3 0  9997
2 24870  86.3973  52.6801 0001855  40.3595 319.7740 14.36912840402775
IRIDIUM 920 [-]         
1 24871U 97034C   24110.87725378  .00001632  00000+0  50529-3 0  9995
2 24871  86.4019  32.8895 0013211  45.4725 314.7552 14.40637212405873
